UNKNOWN                 
1 84006U          26070.42463772  .00000041  00000+0  00000+0 0  9991
2 84006  22.3804 159.3795 6165375  91.8018 334.9081  2.16231900 86149
UNKNOWN                 
1 84188U          26073.53557222  .00171091  00000+0  86970-1 0  9997
2 84188  64.8680 173.6939 3496766   7.9458 356.4471  8.06919434 48494
UNKNOWN                 
1 84232U          26073.24613375  .00045403  00000+0  31058-1 0  9991
2 84232  20.3193 221.1055 6531209 160.2412 246.5418  3.22238882107610
UNKNOWN                 
1 84236U          26069.06002904  .00000953  00000+0  64621-2 0  9994
2 84236   9.2919 296.2005 6890329 171.4122 213.1207  2.62672294116277
UNKNOWN                 
1 84292U          26072.15971793  .00003900  00000+0  24343-2 0  9993
2 84292  23.8366  35.0600 4552969  97.8781 314.4395  6.22307861233696
UNKNOWN                 
1 84406U          26070.18185096  .00000797  00000+0  43750-2 0  9998
2 84406 101.7202 220.4815 0050222 220.6149 320.5627 12.67497465 60499
UNKNOWN                 
1 84407U          26073.27579041  .00000096  00000+0  36204-2 0  9997
2 84407  19.4455 295.5708 7212770 110.9601 335.2275  2.05800324 77750
UNKNOWN                 
1 84575U          26072.34130450 -.00000117  00000+0  13512-2 0  9999
2 84575  18.0153 128.1545 7117532  77.9373 347.6101  2.19863842 67454
UNKNOWN                 
1 84932U          26073.52703525  .00000637  00000+0  58344-2 0  9994
2 84932   2.0525 188.8907 6575918 160.2635 110.8357  3.00150988134532
UNKNOWN                 
1 85004U          26071.75865920  .00001355  00000+0  42680-3 0  9991
2 85004  98.4345  46.5379 0045534 251.5764 229.5772 14.41364565643867
UNKNOWN                 
1 85010U          26070.10361161  .00001121  00000+0  12107-2 0  9995
2 85010  99.2472 294.3168 0026932  21.2025 130.9894 13.75268917616068
UNKNOWN                 
1 85015U          26069.13325454  .00000800  00000+0  16375-3 0  9991
2 85015  74.0470 230.9475 0014237 119.5179 240.7409 14.62416904655383
UNKNOWN                 
1 85023U          26073.36780422  .00035190  00000+0  45810-2 0  9995
2 85023  99.8411 113.9481 0001982 111.0560 264.7192 14.80512960642361
UNKNOWN                 
1 85027U          26072.83864037  .00000220  00000+0  28499-3 0  9996
2 85027  66.0397 238.4220 0169923 141.5822 219.7487 13.74287799617132
UNKNOWN                 
1 85047U          26072.42299749  .00011169  00000+0  17883-1 0  9992
2 85047 102.1683  61.8985 0109082 173.2396 187.0228 13.46773287588855
UNKNOWN                 
1 85061U          26070.94265869  .00003909  00000+0  15397-1 0  9990
2 85061 102.4016  67.9371 0271801  16.4013  40.7965 12.77710823567178
UNKNOWN                 
1 85100U          26070.32357905  .00000456  00000+0  15070-3 0  9993
2 85100  74.0443  59.0034 0013892 265.4410 160.4876 14.40797406646105
