[{"OBJECT_NAME":"UNKNOWN","OBJECT_ID":"","EPOCH":"2026-03-11T10:11:28.699008","MEAN_MOTION":2.162319,"ECCENTRICITY":0.6165375,"INCLINATION":22.3804,"RA_OF_ASC_NODE":159.3795,"ARG_OF_PERICENTER":91.8018,"MEAN_ANOMALY":334.9081,"EPHEMERIS_TYPE":0,"CLASSIFICATION_TYPE":"U","NORAD_CAT_ID":84006,"ELEMENT_SET_NO":999,"REV_AT_EPOCH":8614,"BSTAR":0,"MEAN_MOTION_DOT":4.1e-7,"MEAN_MOTION_DDOT":0},{"OBJECT_NAME":"UNKNOWN","OBJECT_ID":"","EPOCH":"2026-03-14T12:51:13.439808","MEAN_MOTION":8.06919434,"ECCENTRICITY":0.3496766,"INCLINATION":64.868,"RA_OF_ASC_NODE":173.6939,"ARG_OF_PERICENTER":7.9458,"MEAN_ANOMALY":356.4471,"EPHEMERIS_TYPE":0,"CLASSIFICATION_TYPE":"U","NORAD_CAT_ID":84188,"ELEMENT_SET_NO":999,"REV_AT_EPOCH":4849,"BSTAR":0.08697,"MEAN_MOTION_DOT":0.00171091,"MEAN_MOTION_DDOT":0},{"OBJECT_NAME":"UNKNOWN","OBJECT_ID":"","EPOCH":"2026-03-14T05:54:25.956000","MEAN_MOTION":3.22238882,"ECCENTRICITY":0.6531209,"INCLINATION":20.3193,"RA_OF_ASC_NODE":221.1055,"ARG_OF_PERICENTER":160.2412,"MEAN_ANOMALY":246.5418,"EPHEMERIS_TYPE":0,"CLASSIFICATION_TYPE":"U","NORAD_CAT_ID":84232,"ELEMENT_SET_NO":999,"REV_AT_EPOCH":10761,"BSTAR":0.031058,"MEAN_MOTION_DOT":0.00045403,"MEAN_MOTION_DDOT":0},{"OBJECT_NAME":"UNKNOWN","OBJECT_ID":"","EPOCH":"2026-03-10T01:26:26.509056","MEAN_MOTION":2.62672294,"ECCENTRICITY":0.6890329,"INCLINATION":9.2919,"RA_OF_ASC_NODE":296.2005,"ARG_OF_PERICENTER":171.4122,"MEAN_ANOMALY":213.1207,"EPHEMERIS_TYPE":0,"CLASSIFICATION_TYPE":"U","NORAD_CAT_ID":84236,"ELEMENT_SET_NO":999,"REV_AT_EPOCH":11627,"BSTAR":0.0064621,"MEAN_MOTION_DOT":9.53e-6,"MEAN_MOTION_DDOT":0},{"OBJECT_NAME":"UNKNOWN","OBJECT_ID":"","EPOCH":"2026-03-13T03:49:59.629152","MEAN_MOTION":6.22307861,"ECCENTRICITY":0.4552969,"INCLINATION":23.8366,"RA_OF_ASC_NODE":35.06,"ARG_OF_PERICENTER":97.8781,"MEAN_ANOMALY":314.4395,"EPHEMERIS_TYPE":0,"CLASSIFICATION_TYPE":"U","NORAD_CAT_ID":84292,"ELEMENT_SET_NO":999,"REV_AT_EPOCH":23369,"BSTAR":0.0024343,"MEAN_MOTION_DOT":3.9e-5,"MEAN_MOTION_DDOT":0},{"OBJECT_NAME":"UNKNOWN","OBJECT_ID":"","EPOCH":"2026-03-11T04:21:51.922944","MEAN_MOTION":12.67497465,"ECCENTRICITY":0.0050222,"INCLINATION":101.7202,"RA_OF_ASC_NODE":220.4815,"ARG_OF_PERICENTER":220.6149,"MEAN_ANOMALY":320.5627,"EPHEMERIS_TYPE":0,"CLASSIFICATION_TYPE":"U","NORAD_CAT_ID":84406,"ELEMENT_SET_NO":999,"REV_AT_EPOCH":6049,"BSTAR":0.004375,"MEAN_MOTION_DOT":7.97e-6,"MEAN_MOTION_DDOT":0},{"OBJECT_NAME":"UNKNOWN","OBJECT_ID":"","EPOCH":"2026-03-14T06:37:08.291424","MEAN_MOTION":2.05800324,"ECCENTRICITY":0.721277,"INCLINATION":19.4455,"RA_OF_ASC_NODE":295.5708,"ARG_OF_PERICENTER":110.9601,"MEAN_ANOMALY":335.2275,"EPHEMERIS_TYPE":0,"CLASSIFICATION_TYPE":"U","NORAD_CAT_ID":84407,"ELEMENT_SET_NO":999,"REV_AT_EPOCH":7775,"BSTAR":0.0036204,"MEAN_MOTION_DOT":9.6e-7,"MEAN_MOTION_DDOT":0},{"OBJECT_NAME":"UNKNOWN","OBJECT_ID":"","EPOCH":"2026-03-13T08:11:28.708800","MEAN_MOTION":2.19863842,"ECCENTRICITY":0.7117532,"INCLINATION":18.0153,"RA_OF_ASC_NODE":128.1545,"ARG_OF_PERICENTER":77.9373,"MEAN_ANOMALY":347.6101,"EPHEMERIS_TYPE":0,"CLASSIFICATION_TYPE":"U","NORAD_CAT_ID":84575,"ELEMENT_SET_NO":999,"REV_AT_EPOCH":6745,"BSTAR":0.0013512,"MEAN_MOTION_DOT":-1.17e-6,"MEAN_MOTION_DDOT":0},{"OBJECT_NAME":"UNKNOWN","OBJECT_ID":"","EPOCH":"2026-03-14T12:38:55.845600","MEAN_MOTION":3.00150988,"ECCENTRICITY":0.6575918,"INCLINATION":2.0525,"RA_OF_ASC_NODE":188.8907,"ARG_OF_PERICENTER":160.2635,"MEAN_ANOMALY":110.8357,"EPHEMERIS_TYPE":0,"CLASSIFICATION_TYPE":"U","NORAD_CAT_ID":84932,"ELEMENT_SET_NO":999,"REV_AT_EPOCH":13453,"BSTAR":0.0058344,"MEAN_MOTION_DOT":6.37e-6,"MEAN_MOTION_DDOT":0},{"OBJECT_NAME":"UNKNOWN","OBJECT_ID":"","EPOCH":"2026-03-12T18:12:28.154880","MEAN_MOTION":14.41364565,"ECCENTRICITY":0.0045534,"INCLINATION":98.4345,"RA_OF_ASC_NODE":46.5379,"ARG_OF_PERICENTER":251.5764,"MEAN_ANOMALY":229.5772,"EPHEMERIS_TYPE":0,"CLASSIFICATION_TYPE":"U","NORAD_CAT_ID":85004,"ELEMENT_SET_NO":999,"REV_AT_EPOCH":64386,"BSTAR":0.0004268,"MEAN_MOTION_DOT":1.355e-5,"MEAN_MOTION_DDOT":0},{"OBJECT_NAME":"UNKNOWN","OBJECT_ID":"","EPOCH":"2026-03-11T02:29:12.043104","MEAN_MOTION":13.75268917,"ECCENTRICITY":0.0026932,"INCLINATION":99.2472,"RA_OF_ASC_NODE":294.3168,"ARG_OF_PERICENTER":21.2025,"MEAN_ANOMALY":130.9894,"EPHEMERIS_TYPE":0,"CLASSIFICATION_TYPE":"U","NORAD_CAT_ID":85010,"ELEMENT_SET_NO":999,"REV_AT_EPOCH":61606,"BSTAR":0.0012107,"MEAN_MOTION_DOT":1.121e-5,"MEAN_MOTION_DDOT":0},{"OBJECT_NAME":"UNKNOWN","OBJECT_ID":"","EPOCH":"2026-03-10T03:11:53.192256","MEAN_MOTION":14.62416904,"ECCENTRICITY":0.0014237,"INCLINATION":74.047,"RA_OF_ASC_NODE":230.9475,"ARG_OF_PERICENTER":119.5179,"MEAN_ANOMALY":240.7409,"EPHEMERIS_TYPE":0,"CLASSIFICATION_TYPE":"U","NORAD_CAT_ID":85015,"ELEMENT_SET_NO":999,"REV_AT_EPOCH":65538,"BSTAR":0.00016375,"MEAN_MOTION_DOT":8.0e-6,"MEAN_MOTION_DDOT":0},{"OBJECT_NAME":"UNKNOWN","OBJECT_ID":"","EPOCH":"2026-03-14T08:49:38.284608","MEAN_MOTION":14.8051296,"ECCENTRICITY":0.0001982,"INCLINATION":99.8411,"RA_OF_ASC_NODE":113.9481,"ARG_OF_PERICENTER":111.056,"MEAN_ANOMALY":264.7192,"EPHEMERIS_TYPE":0,"CLASSIFICATION_TYPE":"U","NORAD_CAT_ID":85023,"ELEMENT_SET_NO":999,"REV_AT_EPOCH":64236,"BSTAR":0.004581,"MEAN_MOTION_DOT":0.0003519,"MEAN_MOTION_DDOT":0},{"OBJECT_NAME":"UNKNOWN","OBJECT_ID":"","EPOCH":"2026-03-13T20:07:38.527968","MEAN_MOTION":13.74287799,"ECCENTRICITY":0.0169923,"INCLINATION":66.0397,"RA_OF_ASC_NODE":238.422,"ARG_OF_PERICENTER":141.5822,"MEAN_ANOMALY":219.7487,"EPHEMERIS_TYPE":0,"CLASSIFICATION_TYPE":"U","NORAD_CAT_ID":85027,"ELEMENT_SET_NO":999,"REV_AT_EPOCH":61713,"BSTAR":0.00028499,"MEAN_MOTION_DOT":2.2e-6,"MEAN_MOTION_DDOT":0},{"OBJECT_NAME":"UNKNOWN","OBJECT_ID":"","EPOCH":"2026-03-13T10:09:06.983136","MEAN_MOTION":13.46773287,"ECCENTRICITY":0.0109082,"INCLINATION":102.1683,"RA_OF_ASC_NODE":61.8985,"ARG_OF_PERICENTER":173.2396,"MEAN_ANOMALY":187.0228,"EPHEMERIS_TYPE":0,"CLASSIFICATION_TYPE":"U","NORAD_CAT_ID":85047,"ELEMENT_SET_NO":999,"REV_AT_EPOCH":58885,"BSTAR":0.017883,"MEAN_MOTION_DOT":0.00011169,"MEAN_MOTION_DDOT":0},{"OBJECT_NAME":"UNKNOWN","OBJECT_ID":"","EPOCH":"2026-03-11T22:37:25.710816","MEAN_MOTION":12.77710823,"ECCENTRICITY":0.0271801,"INCLINATION":102.4016,"RA_OF_ASC_NODE":67.9371,"ARG_OF_PERICENTER":16.4013,"MEAN_ANOMALY":40.7965,"EPHEMERIS_TYPE":0,"CLASSIFICATION_TYPE":"U","NORAD_CAT_ID":85061,"ELEMENT_SET_NO":999,"REV_AT_EPOCH":56717,"BSTAR":0.015397,"MEAN_MOTION_DOT":3.909e-5,"MEAN_MOTION_DDOT":0},{"OBJECT_NAME":"UNKNOWN","OBJECT_ID":"","EPOCH":"2026-03-11T07:45:57.229920","MEAN_MOTION":14.40797406,"ECCENTRICITY":0.0013892,"INCLINATION":74.0443,"RA_OF_ASC_NODE":59.0034,"ARG_OF_PERICENTER":265.441,"MEAN_ANOMALY":160.4876,"EPHEMERIS_TYPE":0,"CLASSIFICATION_TYPE":"U","NORAD_CAT_ID":85100,"ELEMENT_SET_NO":999,"REV_AT_EPOCH":64610,"BSTAR":0.0001507,"MEAN_MOTION_DOT":4.56e-6,"MEAN_MOTION_DDOT":0}]
